{
  "norad_id": 54862,
  "name": "STARLINK-5403",
  "history": [
    {
      "epoch": "2026-03-28T18:44:12.562944",
      "apogee_km": 486.4109068612124,
      "perigee_km": 484.69141570304873,
      "latitude_deg": -41.75126087711311,
      "longitude_deg": 101.1472921599634,
      "semi_major_axis_km": 6863.688161282131,
      "eccentricity": 0.00012526,
      "inclination_deg": 43.0028,
      "raan_deg": 13.4997,
      "arg_perigee_deg": 280.3483,
      "mean_anomaly_deg": 79.7227,
      "mean_motion_rev_day": 15.26744788
    }
  ]
}