{"fetched_at":"2026-03-29T16:36:15Z","count":15609,"tles":[{"name":"STARLINK-5403","line1":"1 54862U 22177AU  26087.78070096  .00004074  00000+0  16145-3 0  9998","line2":"2 54862  43.0028  13.4997 0001252 280.3483  79.7227 15.26744788180011","category":"Starlink"}]}